NORAD_CAT_ID,OBJECT_NAME,OBJECT_TYPE,EPOCH,MEAN_MOTION,ECCENTRICITY,INCLINATION,RA_OF_ASC_NODE,ARG_OF_PERICENTER,MEAN_ANOMALY,BSTAR,MEAN_MOTION_DOT,MEAN_MOTION_DDOT,TLE_LINE0,TLE_LINE1,TLE_LINE2,SEMIMAJOR_AXIS,PERIOD,APOGEE,PERIGEE,DECAYED
56798.0,STARLINK-6068,PAYLOAD,2024-07-24 22:06:34,14.98330391,0.0002769,69.9981,18.9886,271.0381,89.046,-1.9935e-05,-3.31e-06,0.0,0 STARLINK-6068,1 56798U 23078AH  24206.92123507 -.00000331  00000-0 -19935-4 0  9998,2 56798  69.9981  18.9886 0002769 271.0381  89.0460 14.98330391 65059,6950.192,96.107,573.981,570.132,0.0
56798.0,STARLINK-6068,PAYLOAD,2024-07-25 22:08:35,14.9832896,0.0002794,69.9993,16.4656,276.7341,83.35,-8.4801e-06,-1.94e-06,0.0,0 STARLINK-6068,1 56798U 23078AH  24207.92263602 -.00000194  00000-0 -84801-5 0  9992,2 56798  69.9993  16.4656 0002794 276.7341  83.3500 14.98328960 65204,6950.196,96.107,574.003,570.119,0.0
56798.0,STARLINK-6068,PAYLOAD,2024-07-26 10:57:39,14.98331565,0.0003021,70.0005,15.1182,271.0904,88.9909,1.2202e-05,5.3e-07,0.0,0 STARLINK-6068,1 56798U 23078AH  24208.45671288  .00000053  00000-0  12202-4 0  9991,2 56798  70.0005  15.1182 0003021 271.0904  88.9909 14.98331565 65285,6950.188,96.107,574.153,569.953,0.0
56798.0,STARLINK-6068,PAYLOAD,2024-07-26 17:22:11,14.98334554,0.0002932,69.9993,14.4455,270.6034,89.4789,6.0442e-05,6.28e-06,0.0,0 STARLINK-6068,1 56798U 23078AH  24208.72374904  .00000628  00000-0  60442-4 0  9993,2 56798  69.9993  14.4455 0002932 270.6034  89.4789 14.98334554 64914,6950.179,96.107,574.082,570.006,0.0
56798.0,STARLINK-6068,PAYLOAD,2024-07-26 20:34:28,14.98334525,0.0002935,69.999,14.1087,270.7192,89.363,5.8717e-05,6.08e-06,0.0,0 STARLINK-6068,1 56798U 23078AH  24208.85726871  .00000608  00000-0  58717-4 0  9991,2 56798  69.9990  14.1087 0002935 270.7192  89.3630 14.98334525 65348,6950.179,96.107,574.084,570.004,0.0
56798.0,STARLINK-6068,PAYLOAD,2024-07-27 10:59:41,14.98326523,0.0002899,69.997,12.5935,270.5047,89.578,-3.521e-05,-5.13e-06,0.0,0 STARLINK-6068,1 56798U 23078AH  24209.45811660 -.00000513  00000-0 -35210-4 0  9999,2 56798  69.9970  12.5935 0002899 270.5047  89.5780 14.98326523 65028,6950.204,96.107,574.084,570.054,0.0
56798.0,STARLINK-6068,PAYLOAD,2024-07-27 20:36:29,14.98323969,0.0002925,69.9979,11.5834,270.4881,89.5943,-5.9829e-05,-8.07e-06,0.0,0 STARLINK-6068,1 56798U 23078AH  24209.85867971 -.00000807  00000-0 -59829-4 0  9997,2 56798  69.9979  11.5834 0002925 270.4881  89.5943 14.98323969 65492,6950.212,96.107,574.109,570.044,0.0
56798.0,STARLINK-6068,PAYLOAD,2024-07-28 12:37:49,14.9833274,0.0003067,69.999,9.8991,270.5733,89.5074,2.5429e-05,2.1e-06,0.0,0 STARLINK-6068,1 56798U 23078AH  24210.52627198  .00000210  00000-0  25429-4 0  9993,2 56798  69.9990   9.8991 0003067 270.5733  89.5074 14.98332740 65182,6950.184,96.107,574.181,569.918,0.0
56798.0,STARLINK-6068,PAYLOAD,2024-07-28 20:38:29,14.98337574,0.0003128,70.0008,9.0572,270.2013,89.8787,4.6684e-06,-3.7e-07,0.0,0 STARLINK-6068,1 56798U 23078AH  24210.86006868 -.00000037  00000-0  46684-5 0  9990,2 56798  70.0008   9.0572 0003128 270.2013  89.8787 14.98337574 65643,6950.169,96.107,574.208,569.86,0.0
56798.0,STARLINK-6068,PAYLOAD,2024-07-29 20:40:31,14.98329575,0.0003085,70.0015,6.5335,274.6542,85.4265,7.2906e-05,7.77e-06,0.0,0 STARLINK-6068,1 56798U 23078AH  24211.86147179  .00000777  00000-0  72906-4 0  9997,2 56798  70.0015   6.5335 0003085 274.6542  85.4265 14.98329575 65383,6950.194,96.107,574.203,569.915,0.0
56798.0,STARLINK-6068,PAYLOAD,2024-07-30 03:05:03,14.98329876,0.0003046,70.0017,5.8602,275.538,84.5431,1.3075e-05,6.3e-07,0.0,0 STARLINK-6068,1 56798U 23078AH  24212.12851333  .00000063  00000-0  13075-4 0  9991,2 56798  70.0017   5.8602 0003046 275.5380  84.5431 14.98329876 65830,6950.193,96.107,574.175,569.941,0.0
56798.0,STARLINK-6068,PAYLOAD,2024-07-31 12:43:53,14.98324672,0.0002926,70.0027,2.327,269.1935,90.8889,-4.2538e-05,-6e-06,0.0,0 STARLINK-6068,1 56798U 23078AH  24213.53047914 -.00000600  00000-0 -42538-4 0  9994,2 56798  70.0027   2.3270 0002926 269.1935  90.8889 14.98324672 65639,6950.209,96.107,574.108,570.041,0.0
56798.0,STARLINK-6068,PAYLOAD,2024-07-31 14:20:01,14.98325076,0.0002903,70.0025,2.1587,268.7845,91.2981,-3.6072e-05,-5.23e-06,0.0,0 STARLINK-6068,1 56798U 23078AH  24213.59723894 -.00000523  00000-0 -36072-4 0  9998,2 56798  70.0025   2.1587 0002903 268.7845  91.2981 14.98325076 66050,6950.208,96.107,574.091,570.055,0.0
56798.0,STARLINK-6068,PAYLOAD,2024-07-31 20:44:32,14.9833577,0.0003034,70.0019,1.4851,269.7774,90.3038,2.7359e-05,2.34e-06,0.0,0 STARLINK-6068,1 56798U 23078AH  24213.86427056  .00000234  00000-0  27359-4 0  9994,2 56798  70.0019   1.4851 0003034 269.7774  90.3038 14.98335770 65680,6950.175,96.107,574.149,569.931,0.0
56798.0,STARLINK-6068,PAYLOAD,2024-08-01 11:09:45,14.98330233,0.0003092,70.0017,359.9695,268.5624,91.5181,0.00010325,1.139e-05,0.0,0 STARLINK-6068,1 56798U 23078AH  24214.46511069  .00001139  00000-0  10325-3 0  9998,2 56798  70.0017 359.9695 0003092 268.5624  91.5181 14.98330233 66187,6950.192,96.107,574.206,569.908,0.0
56798.0,STARLINK-6068,PAYLOAD,2024-08-01 19:10:25,14.98342178,0.0003047,70.0019,359.1279,268.9376,91.1434,8.597e-05,9.33e-06,0.0,0 STARLINK-6068,1 56798U 23078AH  24214.79890444  .00000933  00000-0  85970-4 0  9991,2 56798  70.0019 359.1279 0003047 268.9376  91.1434 14.98342178 66231,6950.155,96.106,574.138,569.903,0.0
56798.0,STARLINK-6068,PAYLOAD,2024-08-02 12:47:55,14.98322383,0.0003261,70.0015,357.276,268.1882,91.8904,-0.00012629,-1.599e-05,0.0,0 STARLINK-6068,1 56798U 23078AH  24215.53328241 -.00001599  00000-0 -12629-3 0  9996,2 56798  70.0015 357.2760 0003261 268.1882  91.8904 14.98322383 65934,6950.216,96.107,574.348,569.815,0.0
56798.0,STARLINK-6068,PAYLOAD,2024-08-02 14:24:03,14.98322516,0.0003224,70.0016,357.1078,267.7016,92.3774,-0.00012256,-1.555e-05,0.0,0 STARLINK-6068,1 56798U 23078AH  24215.60004246 -.00001555  00000-0 -12256-3 0  9998,2 56798  70.0016 357.1078 0003224 267.7016  92.3774 14.98322516 66355,6950.216,96.107,574.322,569.84,0.0
56798.0,STARLINK-6068,PAYLOAD,2024-08-02 19:12:27,14.98326343,0.0003186,70.0016,356.603,267.1457,92.9337,-7.5848e-05,-9.98e-06,0.0,0 STARLINK-6068,1 56798U 23078AH  24215.80031921 -.00000998  00000-0 -75848-4 0  9997,2 56798  70.0016 356.6030 0003186 267.1457  92.9337 14.98326343 66383,6950.204,96.107,574.284,569.855,0.0
56798.0,STARLINK-6068,PAYLOAD,2024-08-03 03:13:07,14.98331251,0.0003194,70.0017,355.7616,267.501,92.5784,-3.8313e-05,-5.5e-06,0.0,0 STARLINK-6068,1 56798U 23078AH  24216.13411529 -.00000550  00000-0 -38313-4 0  9990,2 56798  70.0017 355.7616 0003194 267.5010  92.5784 14.98331251 66029,6950.189,96.107,574.274,569.834,0.0
56798.0,STARLINK-6068,PAYLOAD,2024-08-03 12:49:55,14.98338736,0.0003286,70.0013,354.7516,268.0954,91.9829,-1.2478e-05,-2.42e-06,0.0,0 STARLINK-6068,1 56798U 23078AH  24216.53466878 -.00000242  00000-0 -12478-4 0  9993,2 56798  70.0013 354.7516 0003286 268.0954  91.9829 14.98338736 66082,6950.166,96.106,574.315,569.747,0.0
56798.0,STARLINK-6068,PAYLOAD,2024-08-03 14:26:03,14.98339145,0.000327,70.0014,354.5833,267.9675,92.1109,-5.3149e-06,-1.56e-06,0.0,0 STARLINK-6068,1 56798U 23078AH  24216.60142803 -.00000156  00000-0 -53149-5 0  9995,2 56798  70.0014 354.5833 0003270 267.9675  92.1109 14.98339145 66500,6950.165,96.106,574.302,569.757,0.0
56798.0,STARLINK-6068,PAYLOAD,2024-08-03 19:14:26,14.98346921,0.0003266,70.0014,354.0785,268.3745,91.704,7.8766e-05,8.47e-06,0.0,0 STARLINK-6068,1 56798U 23078AH  24216.80169926  .00000847  00000-0  78766-4 0  9998,2 56798  70.0014 354.0785 0003266 268.3745  91.7040 14.98346921 66126,6950.141,96.106,574.275,569.736,0.0
56798.0,STARLINK-6068,PAYLOAD,2024-08-04 12:51:56,14.9830017,0.0002796,70.0023,352.2267,267.5994,92.4845,0.00055648,6.548e-05,0.0,0 STARLINK-6068,1 56798U 23078AH  24217.53607319  .00006548  00000-0  55648-3 0  9999,2 56798  70.0023 352.2267 0002796 267.5994  92.4845 14.98300170 66234,6950.285,96.109,574.093,570.207,0.0
56798.0,STARLINK-6068,PAYLOAD,2024-08-04 14:28:04,14.98327563,0.0002888,70.0027,352.06,262.3425,97.7406,0.00012568,1.407e-05,0.0,0 STARLINK-6068,1 56798U 23078AH  24217.60282848  .00001407  00000-0  12568-3 0  9996,2 56798  70.0027 352.0600 0002888 262.3425  97.7406 14.98327563 66653,6950.2,96.107,574.073,570.058,0.0
56798.0,STARLINK-6068,PAYLOAD,2024-08-04 19:16:28,14.98334543,0.0002763,70.0031,351.5567,258.0001,102.0848,0.00018594,2.127e-05,0.0,0 STARLINK-6068,1 56798U 23078AH  24217.80310195  .00002127  00000-0  18594-3 0  9990,2 56798  70.0031 351.5567 0002763 258.0001 102.0848 14.98334543 66272,6950.179,96.107,573.964,570.124,0.0
56798.0,STARLINK-6068,PAYLOAD,2024-08-05 19:18:28,14.98337834,0.0002596,70.0033,349.0308,261.5655,98.521,2.4341e-06,-6.4e-07,0.0,0 STARLINK-6068,1 56798U 23078AH  24218.80450024 -.00000064  00000-0  24341-5 0  9995,2 56798  70.0033 349.0308 0002596 261.5655  98.5210 14.98337834 66422,6950.169,96.106,573.838,570.229,0.0
56798.0,STARLINK-6068,PAYLOAD,2024-08-06 11:19:50,14.98323265,0.0002655,70.0023,347.3478,266.3211,93.7645,-0.0001848,-2.297e-05,0.0,0 STARLINK-6068,1 56798U 23078AH  24219.47211511 -.00002297  00000-0 -18480-3 0  9991,2 56798  70.0023 347.3478 0002655 266.3211  93.7645 14.98323265 66520,6950.214,96.107,573.924,570.233,0.0
56798.0,STARLINK-6068,PAYLOAD,2024-08-06 14:32:06,14.98321152,0.0002433,70.0029,347.0109,258.035,102.0536,-0.00015346,-1.923e-05,0.0,0 STARLINK-6068,1 56798U 23078AH  24219.60563574 -.00001923  00000-0 -15346-3 0  9998,2 56798  70.0029 347.0109 0002433 258.0350 102.0536 14.98321152 66953,6950.22,96.108,573.776,570.394,0.0
56798.0,STARLINK-6068,PAYLOAD,2024-08-06 17:44:23,14.98321464,0.0002707,70.0026,346.6749,265.1894,94.8956,-0.0001872,-2.325e-05,0.0,0 STARLINK-6068,1 56798U 23078AH  24219.73915733 -.00002325  00000-0 -18720-3 0  9996,2 56798  70.0026 346.6749 0002707 265.1894  94.8956 14.98321464 66973,6950.219,96.108,573.966,570.203,0.0
